{"type": "FeatureCollection", "features": [ {"type": "Feature", "properties": {"norad_id": 28659, "name": "DIRECTV 8", "group": "intelsat", "lat": 0.01766304735109132, "lon": 66.82108978865558, "alt_km": 35798.55383695862, "timestamp": "2025-12-11T07:02:23.401294+00:00", "meta": {"OBJECT_NAME": "DIRECTV 8", "OBJECT_ID": "2005-019A", "EPOCH": "2025-12-10T14:41:19.521600", "MEAN_MOTION": 1.00272305, "ECCENTRICITY": 0.00031388, "INCLINATION": 0.0102, "RA_OF_ASC_NODE": 37.1466, "ARG_OF_PERICENTER": 227.4425, "MEAN_ANOMALY": 276.2856, "EPHEMERIS_TYPE": 0, "CLASSIFICATION_TYPE": "U", "NORAD_CAT_ID": 28659, "ELEMENT_SET_NO": 999, "REV_AT_EPOCH": 7518, "BSTAR": 0, "MEAN_MOTION_DOT": 5e-08, "MEAN_MOTION_DDOT": 0}, "tle": {"line1": "1 28659U 05019A   25344.61203150  .00000005  00000+0  00000+0 0  9994", "line2": "2 28659   0.0102  37.1466 0003138 227.4425 276.2856  1.00272305 75180"}}, "geometry": {"type": "Point", "coordinates": [66.82108978865558, 0.01766304735109132]}}, {"type": "Feature", "properties": {"norad_id": 28702, "name": "GALAXY 28 (G-28)", "group": "intelsat", "lat": 0.7862472020323459, "lon": 97.1371522614804, "alt_km": 35797.41416705962, "timestamp": "2025-12-11T07:02:23.401306+00:00", "meta": {"OBJECT_NAME": "GALAXY 28 (G-28)", "OBJECT_ID": "2005-022A", "EPOCH": "2025-12-10T19:58:09.141600", "MEAN_MOTION": 1.00270813, "ECCENTRICITY": 0.00027094, "INCLINATION": 2.8138, "RA_OF_ASC_NODE": 81.3041, "ARG_OF_PERICENTER": 181.9755, "MEAN_ANOMALY": 27.3727, "EPHEMERIS_TYPE": 0, "CLASSIFICATION_TYPE": "U", "NORAD_CAT_ID": 28702, "ELEMENT_SET_NO": 999, "REV_AT_EPOCH": 5008, "BSTAR": 0, "MEAN_MOTION_DOT": -1.82e-06, "MEAN_MOTION_DDOT": 0}, "tle": {"line1": "1 28702U 05022A   25344.83205025 -.00000182  00000+0  00000+0 0  9991", "line2": "2 28702   2.8138  81.3041 0002709 181.9755  27.3727  1.00270813 50087"}}, "geometry": {"type": "Point", "coordinates": [97.1371522614804, 0.7862472020323459]}}, {"type": "Feature", "properties": {"norad_id": 29236, "name": "GALAXY 16 (G-16)", "group": "intelsat", "lat": 0.009515506441770231, "lon": 86.83651956552144, "alt_km": 35797.190556009715, "timestamp": "2025-12-11T07:02:23.401318+00:00", "meta": {"OBJECT_NAME": "GALAXY 16 (G-16)", "OBJECT_ID": "2006-023A", "EPOCH": "2025-12-10T19:55:01.941312", "MEAN_MOTION": 1.00272369, "ECCENTRICITY": 0.00026968, "INCLINATION": 0.027, "RA_OF_ASC_NODE": 143.7753, "ARG_OF_PERICENTER": 113.6715, "MEAN_ANOMALY": 22.1014, "EPHEMERIS_TYPE": 0, "CLASSIFICATION_TYPE": "U", "NORAD_CAT_ID": 29236, "ELEMENT_SET_NO": 999, "REV_AT_EPOCH": 7108, "BSTAR": 0, "MEAN_MOTION_DOT": -1.22e-06, "MEAN_MOTION_DDOT": 0}, "tle": {"line1": "1 29236U 06023A   25344.82988358 -.00000122  00000+0  00000+0 0  9996", "line2": "2 29236   0.0270 143.7753 0002696 113.6715  22.1014  1.00272369 71086"}}, "geometry": {"type": "Point", "coordinates": [86.83651956552144, 0.009515506441770231]}}, {"type": "Feature", "properties": {"norad_id": 29494, "name": "DIRECTV 9S", "group": "intelsat", "lat": 0.06619456441519159, "lon": 84.63630620307255, "alt_km": 35799.20824962747, "timestamp": "2025-12-11T07:02:23.401330+00:00", "meta": {"OBJECT_NAME": "DIRECTV 9S", "OBJECT_ID": "2006-043A", "EPOCH": "2025-12-10T19:54:31.989024", "MEAN_MOTION": 1.00271731, "ECCENTRICITY": 0.00031004, "INCLINATION": 1.9355, "RA_OF_ASC_NODE": 83.2292, "ARG_OF_PERICENTER": 178.804, "MEAN_ANOMALY": 15.1868, "EPHEMERIS_TYPE": 0, "CLASSIFICATION_TYPE": "U", "NORAD_CAT_ID": 29494, "ELEMENT_SET_NO": 999, "REV_AT_EPOCH": 4949, "BSTAR": 0, "MEAN_MOTION_DOT": -1.08e-06, "MEAN_MOTION_DDOT": 0}, "tle": {"line1": "1 29494U 06043A   25344.82953691 -.00000108  00000+0  00000+0 0  9990", "line2": "2 29494   1.9355  83.2292 0003100 178.8040  15.1868  1.00271731 49498"}}, "geometry": {"type": "Point", "coordinates": [84.63630620307255, 0.06619456441519159]}}, {"type": "Feature", "properties": {"norad_id": 31307, "name": "GALAXY 17 (G-17)", "group": "intelsat", "lat": 0.8098649597803143, "lon": 100.80896056103852, "alt_km": 35806.43276457294, "timestamp": "2025-12-11T07:02:23.401342+00:00", "meta": {"OBJECT_NAME": "GALAXY 17 (G-17)", "OBJECT_ID": "2007-016B", "EPOCH": "2025-12-10T19:59:09.047040", "MEAN_MOTION": 1.00272524, "ECCENTRICITY": 0.00059721, "INCLINATION": 2.4955, "RA_OF_ASC_NODE": 82.3051, "ARG_OF_PERICENTER": 163.1461, "MEAN_ANOMALY": 49.1509, "EPHEMERIS_TYPE": 0, "CLASSIFICATION_TYPE": "U", "NORAD_CAT_ID": 31307, "ELEMENT_SET_NO": 999, "REV_AT_EPOCH": 6791, "BSTAR": 0, "MEAN_MOTION_DOT": -2.02e-06, "MEAN_MOTION_DDOT": 0}, "tle": {"line1": "1 31307U 07016B   25344.83274360 -.00000202  00000+0  00000+0 0  9992", "line2": "2 31307   2.4955  82.3051 0005972 163.1461  49.1509  1.00272524 67919"}}, "geometry": {"type": "Point", "coordinates": [100.80896056103852, 0.8098649597803143]}}, {"type": "Feature", "properties": {"norad_id": 31862, "name": "DIRECTV 10", "group": "intelsat", "lat": 0.0018650806505881097, "lon": 83.05977716344817, "alt_km": 35787.569883044605, "timestamp": "2025-12-11T07:02:23.401354+00:00", "meta": {"OBJECT_NAME": "DIRECTV 10", "OBJECT_ID": "2007-032A", "EPOCH": "2025-12-10T19:53:54.549312", "MEAN_MOTION": 1.00270298, "ECCENTRICITY": 4.46e-05, "INCLINATION": 0.0203, "RA_OF_ASC_NODE": 160.5046, "ARG_OF_PERICENTER": 46.8273, "MEAN_ANOMALY": 68.1606, "EPHEMERIS_TYPE": 0, "CLASSIFICATION_TYPE": "U", "NORAD_CAT_ID": 31862, "ELEMENT_SET_NO": 999, "REV_AT_EPOCH": 4370, "BSTAR": 0, "MEAN_MOTION_DOT": -9.8e-07, "MEAN_MOTION_DDOT": 0}, "tle": {"line1": "1 31862U 07032A   25344.82910358 -.00000098  00000+0  00000+0 0  9992", "line2": "2 31862   0.0203 160.5046 0000446  46.8273  68.1606  1.00270298 43703"}}, "geometry": {"type": "Point", "coordinates": [83.05977716344817, 0.0018650806505881097]}}, {"type": "Feature", "properties": {"norad_id": 32253, "name": "INTELSAT 11 (IS-11)", "group": "intelsat", "lat": -1.1874916332055367, "lon": 57.94111596396323, "alt_km": 36170.895585612714, "timestamp": "2025-12-11T07:02:23.401365+00:00", "meta": {"OBJECT_NAME": "INTELSAT 11 (IS-11)", "OBJECT_ID": "2007-044B", "EPOCH": "2025-12-10T14:39:34.689024", "MEAN_MOTION": 0.99047904, "ECCENTRICITY": 0.00090202, "INCLINATION": 3.0749, "RA_OF_ASC_NODE": 80.9985, "ARG_OF_PERICENTER": 165.1974, "MEAN_ANOMALY": 288.3334, "EPHEMERIS_TYPE": 0, "CLASSIFICATION_TYPE": "U", "NORAD_CAT_ID": 32253, "ELEMENT_SET_NO": 999, "REV_AT_EPOCH": 6658, "BSTAR": 0, "MEAN_MOTION_DOT": 7.9e-07, "MEAN_MOTION_DDOT": 0}, "tle": {"line1": "1 32253U 07044B   25344.61081816  .00000079  00000+0  00000+0 0  9993", "line2": "2 32253   3.0749  80.9985 0009020 165.1974 288.3334  0.99047904 66581"}}, "geometry": {"type": "Point", "coordinates": [57.94111596396323, -1.1874916332055367]}}, {"type": "Feature", "properties": {"norad_id": 32388, "name": "HORIZONS-2", "group": "intelsat", "lat": 1.0434668428702503, "lon": 112.024544544352, "alt_km": 35806.08222404898, "timestamp": "2025-12-11T07:02:23.401377+00:00", "meta": {"OBJECT_NAME": "HORIZONS-2", "OBJECT_ID": "2007-063B", "EPOCH": "2025-12-10T20:02:23.735616", "MEAN_MOTION": 1.00270237, "ECCENTRICITY": 0.00049734, "INCLINATION": 2.1168, "RA_OF_ASC_NODE": 82.9802, "ARG_OF_PERICENTER": 188.2282, "MEAN_ANOMALY": 35.4076, "EPHEMERIS_TYPE": 0, "CLASSIFICATION_TYPE": "U", "NORAD_CAT_ID": 32388, "ELEMENT_SET_NO": 999, "REV_AT_EPOCH": 6592, "BSTAR": 0, "MEAN_MOTION_DOT": -2.48e-06, "MEAN_MOTION_DDOT": 0}, "tle": {"line1": "1 32388U 07063B   25344.83499694 -.00000248  00000+0  00000+0 0  9993", "line2": "2 32388   2.1168  82.9802 0004973 188.2282  35.4076  1.00270237 65926"}}, "geometry": {"type": "Point", "coordinates": [112.024544544352, 1.0434668428702503]}}, {"type": "Feature", "properties": {"norad_id": 32729, "name": "DIRECTV 11", "group": "intelsat", "lat": 0.007556918000203137, "lon": 86.64521288420642, "alt_km": 35787.07791202695, "timestamp": "2025-12-11T07:02:23.401389+00:00", "meta": {"OBJECT_NAME": "DIRECTV 11", "OBJECT_ID": "2008-013A", "EPOCH": "2025-12-10T19:55:09.428736", "MEAN_MOTION": 1.00269537, "ECCENTRICITY": 4.841e-05, "INCLINATION": 0.0266, "RA_OF_ASC_NODE": 165.676, "ARG_OF_PERICENTER": 20.8459, "MEAN_ANOMALY": 92.8714, "EPHEMERIS_TYPE": 0, "CLASSIFICATION_TYPE": "U", "NORAD_CAT_ID": 32729, "ELEMENT_SET_NO": 999, "REV_AT_EPOCH": 4370, "BSTAR": 0, "MEAN_MOTION_DOT": -1.2e-06, "MEAN_MOTION_DDOT": 0}, "tle": {"line1": "1 32729U 08013A   25344.82997024 -.00000120  00000+0  00000+0 0  9996", "line2": "2 32729   0.0266 165.6760 0000484  20.8459  92.8714  1.00269537 43702"}}, "geometry": {"type": "Point", "coordinates": [86.64521288420642, 0.007556918000203137]}}, {"type": "Feature", "properties": {"norad_id": 32951, "name": "GALAXY 18 (G-18)", "group": "intelsat", "lat": 0.03254524479954633, "lon": 62.862821092301914, "alt_km": 35798.03602401095, "timestamp": "2025-12-11T07:02:23.401401+00:00", "meta": {"OBJECT_NAME": "GALAXY 18 (G-18)", "OBJECT_ID": "2008-024A", "EPOCH": "2025-12-10T18:05:27.436992", "MEAN_MOTION": 1.00273034, "ECCENTRICITY": 0.00031187, "INCLINATION": 0.0175, "RA_OF_ASC_NODE": 311.7173, "ARG_OF_PERICENTER": 311.9495, "MEAN_ANOMALY": 324.4196, "EPHEMERIS_TYPE": 0, "CLASSIFICATION_TYPE": "U", "NORAD_CAT_ID": 32951, "ELEMENT_SET_NO": 999, "REV_AT_EPOCH": 4396, "BSTAR": 0, "MEAN_MOTION_DOT": 3e-07, "MEAN_MOTION_DDOT": 0}, "tle": {"line1": "1 32951U 08024A   25344.75378978  .00000030  00000+0  00000+0 0  9997", "line2": "2 32951   0.0175 311.7173 0003118 311.9495 324.4196  1.00273034 43964"}}, "geometry": {"type": "Point", "coordinates": [62.862821092301914, 0.03254524479954633]}}]}